GLOBALSTAR M067         
1 32263U 07048A   25053.84379550 -.00000047  00000+0  37475-3 0  9991
2 32263  51.9755  10.5089 0001269  90.1129 290.9108 12.40666736795532
GLOBALSTAR M070         
1 32264U 07048B   25053.57906969 -.00000079  00000+0  13721-3 0  9995
2 32264  51.9743 117.6459 0000588 143.4387   2.2926 12.62312486799193
GLOBALSTAR M066         
1 32265U 07048C   25053.78394897 -.00000096  00000+0  38595-5 0  9997
2 32265  51.9699 356.8361 0000711   3.5005  73.7965 12.37190728802101
GLOBALSTAR M068         
1 32266U 07048D   25053.40876611 -.00000053  00000+0  28145-3 0  9997
2 32266  51.9886 292.1416 0000194 188.1138 343.1996 12.62815899803059
GLOBALSTAR M079         
1 37188U 10054A   25053.77750740 -.00000098  00000+0  34519-4 0  9992
2 37188  52.0032 128.0690 0000727  94.6042  63.7737 12.62271126662689
GLOBALSTAR M074         
1 37189U 10054B   25053.64480869 -.00000088  00000+0  85858-4 0  9992
2 37189  52.0010 127.8141 0000800 124.6005  29.6548 12.62266641662664
GLOBALSTAR M076         
1 37190U 10054C   25053.67254649 -.00000096  00000+0  43438-4 0  9999
2 37190  52.0024 127.8867 0000985 108.9405  53.7680 12.62277915662671
GLOBALSTAR M077         
1 37191U 10054D   25053.58196646 -.00000095  00000+0  48358-4 0  9997
2 37191  52.0067  84.9883 0000459 117.3766  51.3960 12.62271163662674
